#dP2023  5 18  0  0  0.00000000      96 __u+U ITR00 FIT  IAC
## 2262 345600.00000000   900.00000000 60082 0.0000000000000
+  119   C06C07C08C09C10C11C12C13C14C16C19C20C21C22C23C24C25
+        C26C27C28C29C30C32C33C34C35C36C37C38C39C40C41C42C43
+        C44C45C46E02E03E04E05E07E08E09E10E11E12E13E14E15E18
+        E19E21E24E25E26E27E30E31E33E34E36G01G02G03G04G05G06
+        G07G08G09G10G11G12G13G14G15G16G17G18G19G20G21G22G23
+        G24G25G26G27G28G29G30G31G32J02J03J04R01R02R03R04R05
+        R07R08R09R11R12R13R14R15R16R17R18R19R20R21R22R24R25
++         0  0  0  0  0  0  0  0  0  0  0  0  0  0  0  0  0
++         0  0  0  0  0  0  0  0  0  0  0  0  0  0  0  0  0
++         0  0  0  0  0  0  0  0  0  0  0  0  0  0  0  0  0
++         0  0  0  0  0  0  0  0  0  0  0  0  0  0  0  0  0
++         0  0  0  0  0  0  0  0  0  0  0  0  0  0  0  0  0
++         0  0  0  0  0  0  0  0  0  0  0  0  0  0  0  0  0
++         0  0  0  0  0  0  0  0  0  0  0  0  0  0  0  0  0
%c M  cc GPS ccc cccc cccc cccc cccc ccccc ccccc ccccc ccccc
%c cc cc ccc ccc cccc cccc cccc cccc ccccc ccccc ccccc ccccc
%f  0.0000000  0.000000000  0.00000000000  0.000000000000000
%f  0.0000000  0.000000000  0.00000000000  0.000000000000000
%i    0    0    0    0      0      0      0      0         0
%i    0    0    0    0      0      0      0      0         0
/* INFORMATION & ANALYSIS CENTER (IAC)      ULTRA-RAPID DATA
/* S/V CLOCKS ARE ALIGNED TO GNSS TIME                      
/* G:C1WC2W R:C1PC2P E:C1XC5X C:C2IC6I J:C1CC2S             
/* PCV:IGS20_2247 OL/AL:FES2004  NONE     YN ORB:CoN CLK:CoN
*  2023 05 18  0 15  0.00000000
PC06 -13805.937826  39403.772066   4811.022622   -190.188163
PC07  -3349.146085  31289.397962  28187.617922    -34.567663
PC08 -15106.210451  20981.054388 -33368.601413    482.986881
PC09  -7474.688073  38616.014202  14852.703264    641.683420
PC10   5139.143154  34712.739691  24030.324541    -61.137417
PC11  15937.467366 -12643.593110 -19033.644584    624.934843
PC12  13659.763033   8285.674358 -22850.216238    646.603776
PC13  -6662.214213  22672.140487 -34815.751162    276.895422
PC14  18390.316200  -2831.002062  20837.734254    274.729892
PC16 -15998.190406  38821.629554   1359.983705     74.909091
PC19 -10974.063554  11232.431250 -23038.556264   -911.368926
PC20 -22041.854838  -4470.258039 -16479.423542    561.490649
PC21  20650.078885  18786.131893   -600.043922   -915.491058
PC22   6973.052808  21298.927844 -16646.158206   -483.460039
PC23   4424.163320 -17587.800752 -21203.387763   -931.377206
PC24  26523.619881  -2609.734329   8229.555392    -42.445460
PC25  21023.700081 -15311.241171 -10098.891726    128.663409
PC26  16708.138166   9431.712517  20239.804954   -121.776008
PC27 -10305.061739 -16966.236437  19594.736477    141.737098
PC28   1070.011341 -27078.377104   6659.192148    104.898203
PC29 -12349.335717  21935.002899  12032.528940    121.788425
PC30 -16376.472733   2734.648585  22414.210358     -0.323939
PC32 -20719.739750 -18663.948332    726.270676   -560.884661
PC33  11061.419777 -11220.590460  23040.909964   -882.882497
PC34  16505.561230  -4277.625757 -22111.045240    173.006147
PC35   -539.088845  27234.494645  -5985.344756    625.529218
PC36 -21878.938402  14523.383281   9471.293128   -435.644133
PC37 -15457.789952 -10507.901528 -20714.350545   -784.177365
PC38 -22797.364348  22124.663726 -27768.033110     79.060506
PC39 -17080.360692  38131.815847  -4674.771336     -2.964703
PC40  -5966.100832  27148.960853  31770.792387    -23.498249
PC41  -6323.661833 -21125.216092  17149.825262   -942.219684
PC42  22538.931692   5611.630615  15538.117154   -687.524189
PC43  12843.590603 -21295.612039 -12697.097916     21.907442
PC44  10991.424453  16721.102773 -19455.212096    109.865301
PC45  -3955.969882  17418.002165  21447.085195    -98.886468
PC46 -26809.751201   3746.376263  -6855.068658    -54.797652
PE02   9200.457954 -14688.226844 -23998.537210     38.740917
PE03      0.000000      0.000000      0.000000 999999.999999
PE04  10177.200805  27690.495416   2459.068558   -124.614140
PE05  15303.171546  -7898.349965  24084.409518    -66.493252
PE07 -18032.235870 -14105.388383 -18743.536777    -45.844907
PE08 -10010.370141 -27764.130638  -2152.796652    -84.673652
PE09  17939.800123  14293.197619  18727.767090    -18.337474
PE10  10696.482428  11980.138607 -24876.431149   -534.490016
PE11  18381.190853   2263.361189 -23110.914796   1955.625843
PE12   2139.833565  19051.736493 -22554.701889   -542.960045
PE13 -17846.531758  -2951.037418  23424.475383    -19.188609
PE14  19377.265462  -3539.160754 -23500.480595    228.123817
PE15  -1768.300790 -19230.083114  22436.192368    -22.564403
PE18 -10349.466386  18791.839499  16105.004992     76.122402
PE19  -5274.828424  23634.210539 -17009.292853  -2509.851897
PE21 -25421.922107   4213.601407  14561.722417   -529.707674
PE24  27549.549895   9824.592801   4470.145408   -104.550488
PE25  25610.338868  -3979.988539 -14293.854795   -605.232281
PE26 -23274.294584  15348.672070   9936.947942    107.287257
PE27 -27848.354398  -9297.266728  -3795.937052    -52.057679
PE30 -13209.547412 -17370.208612 -20014.857098   -181.404312
PE31  13840.715278  17191.959284  19729.370659   -523.970047
PE33 -15211.108467  24018.093783  -8220.488364   -444.325795
PE34  15076.420884 -24063.363199   8342.646071    -45.970467
PE36  23277.858887 -14850.942055 -10687.626884    -57.662004
PG01 -12203.062801  21051.928848 -10538.690392    184.579387
PG02 -20544.173846   7129.599769  15729.908083   -595.147775
PG03  -4020.210799  14321.916063 -22134.717869   -300.176021
PG04  -1365.025382  24683.885428  -9543.431423     44.160177
PG05  20205.190097  -6575.993728  15835.528817   -127.595200
PG06  17177.423315   1854.940644 -20142.312582    587.938370
PG07   2079.855256  17815.133835  19892.689535    175.658572
PG08  -8878.382373  16485.984223  18608.300703   -122.921574
PG09   7219.269513  25535.273862     67.963797   -156.540993
PG10 -23121.484747 -11416.750119   7187.418033    -37.362597
PG11  22256.066114 -10549.648722  -9885.915528   -200.706146
PG12   7989.142670 -13215.161023 -21881.932981   -377.309850
PG13  13428.430359  -8889.475083  20905.146275    521.414212
PG14  20935.765820  13565.260719   9345.346924     60.403799
PG15   6727.031040 -18094.253650  17674.124004     40.491824
PG16 -22863.381320   1384.435773  13516.050872   -500.097825
PG17  12977.771029  18322.151465 -13679.523328    715.175929
PG18  -4340.935355 -15565.663557  21046.939821   -270.602079
PG19  15023.547759  10326.869483 -19646.384844    318.296880
PG20  25041.941775  -3142.955872   7989.432591    433.017020
PG21 -16902.618493  19853.158789   -181.418656    153.760370
PG22 -15399.793583  -6609.260750 -20192.605555    483.059015
PG23 -13935.599327 -15221.780838  16809.327376     25.069263
PG24  13475.655260 -22028.589060  -5524.579991   -192.497490
PG25  -5390.148393 -16483.982239 -20499.940935    443.552654
PG26 -26357.034374  -4174.483328   1698.686171    240.657702
PG27 -14245.907638   4581.914822  21681.464535     35.304350
PG28 -16406.001362  -3609.689653 -20595.434385     78.431969
PG29  -2860.937691 -26234.520723  -2607.836821   -599.788991
PG30  12248.501226  10114.463596  21409.631234   -516.590048
PG31 -21649.360037   6029.680813 -14676.387963   -216.314015
PG32 -15224.495031 -15419.752030 -15310.696554   -479.017143
PJ02 -28289.550109  22311.351633  26957.630271     -0.017668
PJ03 -31894.553050  26344.659807  13138.446885      4.368616
PJ04 -24451.737846  20882.568694 -22112.593438     94.607728
PR01 -14209.259180  -1329.699611 -21131.131302     57.693201
PR02  -1543.623132  14194.913957 -21071.967300    -22.826863
PR03  11462.122770  21107.514178  -8458.921697     78.015302
PR04  17637.821927  16338.310679   8544.904217    187.586857
PR05  14343.201962   2685.809579  20932.889083    112.727082
PR07 -11899.288469 -21212.426152   7809.071777     56.114954
PR08 -17760.745520 -16172.805560  -8558.154025    -70.824426
PR09  13934.915616 -11435.462160 -18066.332369    120.737652
PR11 -19876.812315  -4255.324673 -15387.967942    -58.225112
PR12 -24855.278508   5052.892799   2803.230910     27.352330
PR13 -15723.795394  10753.086881  16950.844713    -35.151646
PR14   4650.949551  10469.341184  22804.558226     24.677854
PR15  20677.215956   3959.002754  14427.952730     89.311125
PR16  24904.168421  -5052.464641  -2416.908504     14.664074
PR17  -1711.911602  21171.930131 -14149.879125    630.884356
PR18   7745.735192   8133.287873 -22888.192683     82.037774
PR19  13316.701755  -7236.498202 -20523.638568   -232.992052
PR20  11967.317992 -22253.525367  -3665.068113    -93.024332
PR21    965.589814 -20310.749081  15380.340758     -8.261937
PR22  -8307.614537  -7714.982857  22872.959260     81.508497
PR24 -11036.768129  22805.747677   3022.397377    171.243715
PR25   2586.460636 -21189.522973  13951.558020     61.397095
EOF
